start=new Date('2023-05-25T00:00:00.000Z').valueOf();
sats=[{"RA_OF_ASC_NODE":"75.3174","EPHEMERIS_TYPE":"0","TIME_SYSTEM":"UTC","DECAY_DATE":null,"MEAN_ANOMALY":"271.9485","OBJECT_TYPE":"PAYLOAD","SEMIMAJOR_AXIS":"6917.916","APOAPSIS":"540.645","ECCENTRICITY":"0.00012490","TLE_LINE2":"2 53133  53.2183  75.3174 0001249  88.1651 271.9485 15.08828212 47140","GP_ID":"232449724","CLASSIFICATION_TYPE":"U","PERIAPSIS":"538.917","ELEMENT_SET_NO":"999","COUNTRY_CODE":"US","SITE":"AFETR","PERIOD":"95.438","MEAN_MOTION_DOT":"0.00003921","LAUNCH_DATE":"2022-07-17","INCLINATION":"53.2183","REV_AT_EPOCH":"4714","TLE_LINE1":"1 53133U 22083B   23144.19117988  .00003921  00000-0  26441-3 0  9993","EPOCH":"2023-05-24T04:35:17.941632","BSTAR":"0.00026441000000","MEAN_ELEMENT_THEORY":"SGP4","CENTER_NAME":"EARTH","OBJECT_ID":"2022-083B","MEAN_MOTION_DDOT":"0.0000000000000","RCS_SIZE":"LARGE","MEAN_MOTION":"15.08828212","OBJECT_NAME":"STARLINK-4154","REF_FRAME":"TEME","FILE":"3916549","ARG_OF_PERICENTER":"88.1651","NORAD_CAT_ID":"53133"},{"FILE":"3916549","NORAD_CAT_ID":"53134","ARG_OF_PERICENTER":"108.3393","MEAN_MOTION":"15.08829894","OBJECT_NAME":"STARLINK-4150","REF_FRAME":"TEME","RCS_SIZE":"LARGE","CENTER_NAME":"EARTH","OBJECT_ID":"2022-083C","MEAN_MOTION_DDOT":"0.0000000000000","REV_AT_EPOCH":"4714","PERIOD":"95.438","MEAN_MOTION_DOT":"0.00001960","LAUNCH_DATE":"2022-07-17","INCLINATION":"53.2177","BSTAR":"0.00014125000000","MEAN_ELEMENT_THEORY":"SGP4","TLE_LINE1":"1 53134U 22083C   23144.11388606  .00001960  00000-0  14125-3 0  9990","EPOCH":"2023-05-24T02:43:59.755584","COUNTRY_CODE":"US","SITE":"AFETR","ECCENTRICITY":"0.00014350","GP_ID":"232449972","TLE_LINE2":"2 53134  53.2177  75.6617 0001435 108.3393 251.7755 15.08829894 47147","ELEMENT_SET_NO":"999","CLASSIFICATION_TYPE":"U","PERIAPSIS":"538.784","SEMIMAJOR_AXIS":"6917.911","APOAPSIS":"540.769","DECAY_DATE":null,"TIME_SYSTEM":"UTC","OBJECT_TYPE":"PAYLOAD","MEAN_ANOMALY":"251.7755","EPHEMERIS_TYPE":"0","RA_OF_ASC_NODE":"75.6617"},{"REV_AT_EPOCH":"4814","LAUNCH_DATE":"2022-07-17","MEAN_MOTION_DOT":"0.00007264","INCLINATION":"53.2181","PERIOD":"95.437","MEAN_ELEMENT_THEORY":"SGP4","BSTAR":"0.00047388000000","EPOCH":"2023-05-24T04:29:58.587360","TLE_LINE1":"1 53135U 22083D   23144.18748365  .00007264  00000-0  47388-3 0  9990","COUNTRY_CODE":"US","SITE":"AFETR","NORAD_CAT_ID":"53135","ARG_OF_PERICENTER":"88.1591","FILE":"3916549","OBJECT_NAME":"STARLINK-4023","REF_FRAME":"TEME","MEAN_MOTION":"15.08848433","RCS_SIZE":"LARGE","OBJECT_ID":"2022-083D","MEAN_MOTION_DDOT":"0.0000000000000","CENTER_NAME":"EARTH","DECAY_DATE":null,"TIME_SYSTEM":"UTC","MEAN_ANOMALY":"271.9538","OBJECT_TYPE":"PAYLOAD","EPHEMERIS_TYPE":"0","RA_OF_ASC_NODE":"75.3272","GP_ID":"232450718","TLE_LINE2":"2 53135  53.2181  75.3272 0001199  88.1591 271.9538 15.08848433 48143","ECCENTRICITY":"0.00011990","ELEMENT_SET_NO":"999","PERIAPSIS":"538.890","CLASSIFICATION_TYPE":"U","APOAPSIS":"540.549","SEMIMAJOR_AXIS":"6917.855"},{"TIME_SYSTEM":"UTC","DECAY_DATE":null,"MEAN_ANOMALY":"259.6691","OBJECT_TYPE":"PAYLOAD","EPHEMERIS_TYPE":"0","RA_OF_ASC_NODE":"75.3447","ECCENTRICITY":"0.00012370","TLE_LINE2":"2 53136  53.2173  75.3447 0001237 100.4441 259.6691 15.08839564 48142","GP_ID":"232450969","ELEMENT_SET_NO":"999","CLASSIFICATION_TYPE":"U","PERIAPSIS":"538.891","SEMIMAJOR_AXIS":"6917.882","APOAPSIS":"540.602","REV_AT_EPOCH":"4814","PERIOD":"95.438","LAUNCH_DATE":"2022-07-17","MEAN_MOTION_DOT":"0.00004165","INCLINATION":"53.2173","BSTAR":"0.00027965000000","MEAN_ELEMENT_THEORY":"SGP4","TLE_LINE1":"1 53136U 22083E   23144.18380546  .00004165  00000-0  27965-3 0  9990","EPOCH":"2023-05-24T04:24:40.791744","COUNTRY_CODE":"US","SITE":"AFETR","FILE":"3916549","ARG_OF_PERICENTER":"100.4441","NORAD_CAT_ID":"53136","MEAN_MOTION":"15.08839564","REF_FRAME":"TEME","OBJECT_NAME":"STARLINK-4152","RCS_SIZE":"LARGE","CENTER_NAME":"EARTH","MEAN_MOTION_DDOT":"0.0000000000000","OBJECT_ID":"2022-083E"},{"RA_OF_ASC_NODE":"75.3786","EPHEMERIS_TYPE":"0","DECAY_DATE":null,"TIME_SYSTEM":"UTC","OBJECT_TYPE":"PAYLOAD","MEAN_ANOMALY":"278.0850","APOAPSIS":"540.648","SEMIMAJOR_AXIS":"6917.829","GP_ID":"232450225","TLE_LINE2":"2 53137  53.2177  75.3786 0001379  82.0299 278.0850 15.08856658 47151","ECCENTRICITY":"0.00013790","PERIAPSIS":"538.741","CLASSIFICATION_TYPE":"U","ELEMENT_SET_NO":"999","COUNTRY_CODE":"US","SITE":"AFETR","MEAN_MOTION_DOT":"0.00007902","LAUNCH_DATE":"2022-07-17","INCLINATION":"53.2177","PERIOD":"95.437","REV_AT_EPOCH":"4715","EPOCH":"2023-05-24T04:14:04.607808","TLE_LINE1":"1 53137U 22083F   23144.17644222  .00007902  00000-0  51378-3 0  9991","BSTAR":"0.00051378000000","MEAN_ELEMENT_THEORY":"SGP4","OBJECT_ID":"2022-083F","MEAN_MOTION_DDOT":"0.0000000000000","CENTER_NAME":"EARTH","RCS_SIZE":"LARGE","OBJECT_NAME":"STARLINK-4145","REF_FRAME":"TEME","MEAN_MOTION":"15.08856658","ARG_OF_PERICENTER":"82.0299","NORAD_CAT_ID":"53137","FILE":"3916549"},{"COUNTRY_CODE":"US","SITE":"AFETR","REV_AT_EPOCH":"4797","MEAN_MOTION_DOT":"0.00001871","LAUNCH_DATE":"2022-07-17","INCLINATION":"53.2180","PERIOD":"95.438","BSTAR":"0.00013564000000","MEAN_ELEMENT_THEORY":"SGP4","EPOCH":"2023-05-24T01:01:21.400320","TLE_LINE1":"1 53138U 22083G   23144.04260880  .00001871  00000-0  13564-3 0  9996","RCS_SIZE":"LARGE","OBJECT_ID":"2022-083G","MEAN_MOTION_DDOT":"0.0000000000000","CENTER_NAME":"EARTH","ARG_OF_PERICENTER":"104.5762","NORAD_CAT_ID":"53138","FILE":"3916549","REF_FRAME":"TEME","OBJECT_NAME":"STARLINK-4141","MEAN_MOTION":"15.08831577","EPHEMERIS_TYPE":"0","RA_OF_ASC_NODE":"71.1630","DECAY_DATE":null,"TIME_SYSTEM":"UTC","MEAN_ANOMALY":"255.5353","OBJECT_TYPE":"PAYLOAD","APOAPSIS":"540.538","SEMIMAJOR_AXIS":"6917.906","TLE_LINE2":"2 53138  53.2180  71.1630 0001109 104.5762 255.5353 15.08831577 47975","GP_ID":"232450473","ECCENTRICITY":"0.00011090","ELEMENT_SET_NO":"999","PERIAPSIS":"539.004","CLASSIFICATION_TYPE":"U"},{"DECAY_DATE":null,"TIME_SYSTEM":"UTC","MEAN_ANOMALY":"265.0102","OBJECT_TYPE":"PAYLOAD","RA_OF_ASC_NODE":"75.7289","EPHEMERIS_TYPE":"0","GP_ID":"232451219","TLE_LINE2":"2 53139  53.2173  75.7289 0001216  95.1029 265.0102 15.08822121 47140","ECCENTRICITY":"0.00012160","PERIAPSIS":"538.959","CLASSIFICATION_TYPE":"U","ELEMENT_SET_NO":"999","APOAPSIS":"540.641","SEMIMAJOR_AXIS":"6917.935","INCLINATION":"53.2173","LAUNCH_DATE":"2022-07-17","MEAN_MOTION_DOT":"0.00003002","PERIOD":"95.439","REV_AT_EPOCH":"4714","EPOCH":"2023-05-24T02:22:48.099648","TLE_LINE1":"1 53139U 22083H   23144.09916782  .00003002  00000-0  20672-3 0  9997","MEAN_ELEMENT_THEORY":"SGP4","BSTAR":"0.00020672000000","COUNTRY_CODE":"US","SITE":"AFETR","REF_FRAME":"TEME","OBJECT_NAME":"STARLINK-4185","MEAN_MOTION":"15.08822121","NORAD_CAT_ID":"53139","ARG_OF_PERICENTER":"95.1029","FILE":"3916549","OBJECT_ID":"2022-083H","MEAN_MOTION_DDOT":"0.0000000000000","CENTER_NAME":"EARTH","RCS_SIZE":"LARGE"},{"PERIAPSIS":"538.886","CLASSIFICATION_TYPE":"U","ELEMENT_SET_NO":"999","GP_ID":"232451470","TLE_LINE2":"2 53140  53.2182  75.7140 0001257  99.7118 260.4016 15.08836573 47141","ECCENTRICITY":"0.00012570","APOAPSIS":"540.625","SEMIMAJOR_AXIS":"6917.891","MEAN_ANOMALY":"260.4016","OBJECT_TYPE":"PAYLOAD","DECAY_DATE":null,"TIME_SYSTEM":"UTC","RA_OF_ASC_NODE":"75.7140","EPHEMERIS_TYPE":"0","OBJECT_NAME":"STARLINK-4170","REF_FRAME":"TEME","MEAN_MOTION":"15.08836573","ARG_OF_PERICENTER":"99.7118","NORAD_CAT_ID":"53140","FILE":"3916549","MEAN_MOTION_DDOT":"0.0000000000000","OBJECT_ID":"2022-083J","CENTER_NAME":"EARTH","RCS_SIZE":"LARGE","EPOCH":"2023-05-24T02:28:05.517696","TLE_LINE1":"1 53140U 22083J   23144.10284164  .00002054  00000-0  14710-3 0  9995","MEAN_ELEMENT_THEORY":"SGP4","BSTAR":"0.00014710000000","LAUNCH_DATE":"2022-07-17","MEAN_MOTION_DOT":"0.00002054","INCLINATION":"53.2182","PERIOD":"95.438","REV_AT_EPOCH":"4714","SITE":"AFETR","COUNTRY_CODE":"US"},{"REF_FRAME":"TEME","OBJECT_NAME":"STARLINK-4103","MEAN_MOTION":"15.08853791","ARG_OF_PERICENTER":"86.9872","NORAD_CAT_ID":"53141","FILE":"3916549","OBJECT_ID":"2022-083K","MEAN_MOTION_DDOT":"0.0000000000000","CENTER_NAME":"EARTH","RCS_SIZE":"LARGE","EPOCH":"2023-05-24T02:01:35.819904","TLE_LINE1":"1 53141U 22083K   23144.08444236  .00005950  00000-0  39145-3 0  9998","BSTAR":"0.00039145000000","MEAN_ELEMENT_THEORY":"SGP4","LAUNCH_DATE":"2022-07-17","INCLINATION":"53.2158","MEAN_MOTION_DOT":"0.00005950","PERIOD":"95.437","REV_AT_EPOCH":"4714","SITE":"AFETR","COUNTRY_CODE":"US","PERIAPSIS":"538.908","CLASSIFICATION_TYPE":"U","ELEMENT_SET_NO":"999","GP_ID":"232449725","TLE_LINE2":"2 53141  53.2158  75.7926 0001149  86.9872 273.1252 15.08853791 47146","ECCENTRICITY":"0.00011490","APOAPSIS":"540.498","SEMIMAJOR_AXIS":"6917.838","MEAN_ANOMALY":"273.1252","OBJECT_TYPE":"PAYLOAD","DECAY_DATE":null,"TIME_SYSTEM":"UTC","RA_OF_ASC_NODE":"75.7926","EPHEMERIS_TYPE":"0"},{"NORAD_CAT_ID":"53142","ARG_OF_PERICENTER":"112.9144","FILE":"3916549","REF_FRAME":"TEME","OBJECT_NAME":"STARLINK-4101","MEAN_MOTION":"15.08831946","RCS_SIZE":"LARGE","OBJECT_ID":"2022-083L","MEAN_MOTION_DDOT":"0.0000000000000","CENTER_NAME":"EARTH","REV_AT_EPOCH":"4717","INCLINATION":"53.2180","LAUNCH_DATE":"2022-07-17","MEAN_MOTION_DOT":"0.00001528","PERIOD":"95.438","BSTAR":"0.00011407000000","MEAN_ELEMENT_THEORY":"SGP4","EPOCH":"2023-05-24T05:28:16.061088","TLE_LINE1":"1 53142U 22083L   23144.22796367  .00001528  00000-0  11407-3 0  9998","COUNTRY_CODE":"US","SITE":"AFETR","TLE_LINE2":"2 53142  53.2180  75.1471 0001481 112.9144 247.2005 15.08831946 47171","GP_ID":"232449973","ECCENTRICITY":"0.00014810","ELEMENT_SET_NO":"999","PERIAPSIS":"538.745","CLASSIFICATION_TYPE":"U","APOAPSIS":"540.795","SEMIMAJOR_AXIS":"6917.905","DECAY_DATE":null,"TIME_SYSTEM":"UTC","OBJECT_TYPE":"PAYLOAD","MEAN_ANOMALY":"247.2005","EPHEMERIS_TYPE":"0","RA_OF_ASC_NODE":"75.1471"}];
